line1,line2,validFromUtcTime
1 00000U 00000E   26001.00000000  .00000000  00000-0  27772-4 0    01,2 00000  88.9289  30.3309 0010160 270.6009 239.5262 13.55337058    05,2026-01-01T00:00:00Z
1 00000U 00000E   26002.00000000  .00000000  00000-0  27772-4 0    02,2 00000  88.9289  30.2219 0010160 267.6904  78.7380 13.55337096    00,2026-01-02T00:00:00Z
